BEIDOU-2 IGSO-5         
1 37948U 11073A   26165.77805220 -.00000164  00000+0  00000+0 0  9994
2 37948  47.6828 271.5760 0113882 221.6228 141.7208  1.00273176 53112
LUCH-5A                 
1 37951U 11074B   26165.53100439 -.00000050  00000+0  00000+0 0  9997
2 37951   8.7472  73.8464 0002190  25.7542 161.3460  1.00269857 53023
BEIDOU-2 G5             
1 38091U 12008A   26165.89975531  .00000060  00000+0  00000+0 0  9993
2 38091   3.5669  69.7089 0009147 272.9219 303.1266  1.00271220 52344
BEIDOU-2 M3             
1 38250U 12018A   26164.96691969 -.00000071  00000+0  00000+0 0  9991
2 38250  55.7612 304.9843 0020094 274.1342  85.6161  1.86229866 95880
BEIDOU-2 M4             
1 38251U 12018B   26164.36225567 -.00000070  00000+0  00000+0 0  9992
2 38251  55.6617 304.2191 0011287 276.0779  83.7740  1.86229521 95872
SES-5                   
1 38652U 12036A   26165.76225566  .00000039  00000+0  00000+0 0  9995
2 38652   0.0496 312.8635 0001640 140.9564  88.6285  1.00269203 44438
BEIDOU-2 M6             
1 38775U 12050B   26164.07202103 -.00000056  00000+0  00000+0 0  9992
2 38775  56.5408  63.0305 0013772 356.7295   3.2873  1.86230840 93236
GSAT-10                 
1 38779U 12051B   26165.86189116 -.00000159  00000+0  00000+0 0  9997
2 38779   0.0866 263.2126 0007758 184.0265 209.2120  1.00270051 50075
NAVSTAR 67 (USA 239)    
1 38833U 12053A   26165.32480242  .00000053  00000+0  00000+0 0  9997
2 38833  53.5854 143.7166 0180145  65.7124 296.1325  2.00567367 99382
GSAT0103 (GALILEO-FM3)  
1 38857U 12055A   26165.54265691 -.00000011  00000+0  00000+0 0  9993
2 38857  55.8050 101.6182 0004917 305.1909  54.7190  1.70473336 84960
BEIDOU-2 G6             
1 38953U 12059A   26165.84785191 -.00000174  00000+0  00000+0 0  9999
2 38953   4.4143  73.5459 0009618 324.3341 254.5209  1.00272440 49889
LUCH-5B                 
1 38977U 12061A   26163.97444869 -.00000133  00000+0  00000+0 0  9999
2 38977  10.4721  49.9205 0002346 149.8007  36.0976  1.00272671 49565
COSMOS 2485 [GLONASS-M] 
1 39155U 13019A   26164.15591044 -.00000031  00000+0  00000+0 0  9998
2 39155  65.4173  73.7400 0023242 234.2149 125.5877  2.13103375102193
NAVSTAR 68 (USA 242)    
1 39166U 13023A   26165.19168633 -.00000018  00000+0  00000+0 0  9999
2 39166  54.5064 269.0957 0141547  51.0304 310.2477  2.00563390 95820
IRNSS-1A                
1 39199U 13034A   26160.59779131  .00000070  00000+0  00000+0 0  9994
2 39199  35.7049  63.9797 0017411 184.2474 279.8453  1.00272948 47299
NAVSTAR 69 (USA 248)    
1 39533U 14008A   26165.19330913  .00000063  00000+0  00000+0 0  9992
2 39533  53.6541 149.4417 0084236 231.2354 127.9952  2.00559538 89629
ASTRA 5B                
1 39617U 14011B   26165.83592725  .00000143  00000+0  00000+0 0  9990
2 39617   0.0468 335.6540 0001755  97.2903 154.6129  1.00272384 44643
COSMOS 2492 [GLONASS-M] 
1 39620U 14012A   26165.05330889 -.00000053  00000+0  00000+0 0  9991
2 39620  65.2995 314.0428 0010453 325.1473  34.7685  2.13103207 95172
IRNSS-1B                
1 39635U 14017A   26165.77103215  .00000132  00000+0  00000+0 0  9999
2 39635  28.9259 240.4448 0023063 189.5629 165.7473  1.00275602 44760
LUCH-5V                 
1 39727U 14023A   26165.77848553 -.00000267  00000+0  00000+0 0  9999
2 39727   5.1252  69.7653 0001838  45.6225 162.6194  1.00275422 44331
NAVSTAR 70 (USA 251)    
1 39741U 14026A   26165.46877933 -.00000077  00000+0  00000+0 0  9997
2 39741  56.4997 331.6232 0038186 326.6153  33.1392  2.00561101 88483
COSMOS 2500 [GLONASS-M] 
1 40001U 14032A   26164.28459738 -.00000051  00000+0  00000+0 0  9995
2 40001  65.2352 313.8168 0007281 184.1744 175.8059  2.13106047 93378
NAVSTAR 71 (USA 256)    
1 40105U 14045A   26165.06191814 -.00000030  00000+0  00000+0 0  9996
2 40105  55.3513  88.5895 0033186 118.2824 242.0384  2.00558116 86010
GSAT0201 (GALILEO 5)    
1 40128U 14050A   26164.64403526 -.00000043  00000+0  00000+0 0  9990
2 40128  48.8793 273.5817 1673953 179.2575 181.0766  1.85519952 78255
GSAT0202 (GALILEO 6)    
1 40129U 14050B   26164.36060369 -.00000042  00000+0  00000+0 0  9993
2 40129  48.8965 272.6788 1675244 179.9701 180.0913  1.85520497 80417
IRNSS-1C                
1 40269U 14061A   26165.84767858 -.00000160  00000+0  00000+0 0  9992
2 40269   6.5121  88.9752 0022727   2.1523 200.1682  1.00269703 42665
NAVSTAR 72 (USA 258)    
1 40294U 14068A   26163.93501465 -.00000061  00000+0  00000+0 0  9995
2 40294  56.9847  31.1185 0066962  70.4280 290.3526  2.00575830 85122
COSMOS 2501 [GLONASS-K] 
1 40315U 14075A   26164.07739897  .00000117  00000+0  00000+0 0  9996
2 40315  63.6161 190.5143 0022567 212.1681 147.7675  2.13101424 89769
NAVSTAR 73 (USA 260)    
1 40534U 15013A   26164.57224104  .00000093  00000+0  00000+0 0  9990
2 40534  53.1681 204.3272 0109430  40.1118 320.7798  2.00551527 81758
GSAT0203 (GALILEO 7)    
1 40544U 15017A   26162.34701021 -.00000066  00000+0  00000+0 0  9997
2 40544  56.7895 341.7548 0002091 278.1581  81.8319  1.70476009 69105
GSAT0204 (GALILEO 8)    
1 40545U 15017B   26165.53569013 -.00000079  00000+0  00000+0 0  9999
2 40545  56.7953 341.6863 0001910 248.0709 111.9109  1.70475571 32203
